{
  "type": "FeatureCollection",
  "features": [
    {
      "type": "Feature",
      "properties": {
        "norad_id": 34299,
        "name": "COSMOS 2251 DEB",
        "group": "cosmos-2251-debris",
        "lat": 52.682522397990866,
        "lon": 17.604001294444906,
        "alt_km": 368.3989657506663,
        "timestamp": "2025-12-03T10:52:57.850062+00:00",
        "meta_object_name": "COSMOS 2251 DEB",
        "meta_object_id": "1993-036MV",
        "meta_epoch": "2025-12-03T02:56:38.084064",
        "meta_mean_motion": 15.5874635,
        "meta_eccentricity": 0.0024923,
        "meta_inclination": 73.9827,
        "meta_ra_of_asc_node": 356.2016,
        "meta_arg_of_pericenter": 62.6984,
        "meta_mean_anomaly": 297.6767,
        "meta_ephemeris_type": 0,
        "meta_classification_type": "U",
        "meta_norad_cat_id": 34299,
        "meta_element_set_no": 999,
        "meta_rev_at_epoch": 88860,
        "meta_bstar": 0.0062173,
        "meta_mean_motion_dot": 0.00517253,
        "meta_mean_motion_ddot": 0,
        "tle_line1": "1 34299U 93036MV  25337.12266301  .00517253  00000+0  62173-2 0  9992",
        "tle_line2": "2 34299  73.9827 356.2016 0024923  62.6984 297.6767 15.58746350888601"
      },
      "geometry": {
        "type": "Point",
        "coordinates": [
          17.604001294444906,
          52.682522397990866
        ]
      }
    },
    {
      "type": "Feature",
      "properties": {
        "norad_id": 34301,
        "name": "COSMOS 2251 DEB",
        "group": "cosmos-2251-debris",
        "lat": -52.455445709836496,
        "lon": 163.23544449469674,
        "alt_km": 619.6888139741632,
        "timestamp": "2025-12-03T10:52:57.850074+00:00",
        "meta_object_name": "COSMOS 2251 DEB",
        "meta_object_id": "1993-036MX",
        "meta_epoch": "2025-12-03T00:29:19.044384",
        "meta_mean_motion": 14.837811,
        "meta_eccentricity": 0.0012401,
        "meta_inclination": 74.0064,
        "meta_ra_of_asc_node": 186.0071,
        "meta_arg_of_pericenter": 244.9578,
        "meta_mean_anomaly": 266.9815,
        "meta_ephemeris_type": 0,
        "meta_classification_type": "U",
        "meta_norad_cat_id": 34301,
        "meta_element_set_no": 999,
        "meta_rev_at_epoch": 88256,
        "meta_bstar": 0.0031794,
        "meta_mean_motion_dot": 0.00026438,
        "meta_mean_motion_ddot": 0,
        "tle_line1": "1 34301U 93036MX  25337.02035931  .00026438  00000+0  31794-2 0  9993",
        "tle_line2": "2 34301  74.0064 186.0071 0012401 244.9578 266.9815 14.83781100882563"
      },
      "geometry": {
        "type": "Point",
        "coordinates": [
          163.23544449469674,
          -52.455445709836496
        ]
      }
    },
    {
      "type": "Feature",
      "properties": {
        "norad_id": 34302,
        "name": "COSMOS 2251 DEB",
        "group": "cosmos-2251-debris",
        "lat": 73.73802581977553,
        "lon": -115.88152734072018,
        "alt_km": 758.1493846821431,
        "timestamp": "2025-12-03T10:52:57.850086+00:00",
        "meta_object_name": "COSMOS 2251 DEB",
        "meta_object_id": "1993-036MY",
        "meta_epoch": "2025-12-02T19:45:24.180192",
        "meta_mean_motion": 14.39268942,
        "meta_eccentricity": 0.0078174,
        "meta_inclination": 74.1772,
        "meta_ra_of_asc_node": 141.7248,
        "meta_arg_of_pericenter": 359.8671,
        "meta_mean_anomaly": 68.76,
        "meta_ephemeris_type": 0,
        "meta_classification_type": "U",
        "meta_norad_cat_id": 34302,
        "meta_element_set_no": 999,
        "meta_rev_at_epoch": 87578,
        "meta_bstar": 0.0008552,
        "meta_mean_motion_dot": 2.725e-05,
        "meta_mean_motion_ddot": 0,
        "tle_line1": "1 34302U 93036MY  25336.82319653  .00002725  00000+0  85520-3 0  9997",
        "tle_line2": "2 34302  74.1772 141.7248 0078174 359.8671  68.7600 14.39268942875785"
      },
      "geometry": {
        "type": "Point",
        "coordinates": [
          -115.88152734072018,
          73.73802581977553
        ]
      }
    },
    {
      "type": "Feature",
      "properties": {
        "norad_id": 34303,
        "name": "COSMOS 2251 DEB",
        "group": "cosmos-2251-debris",
        "lat": 44.423680925382364,
        "lon": 109.31390559824504,
        "alt_km": 641.5054683430408,
        "timestamp": "2025-12-03T10:52:57.850097+00:00",
        "meta_object_name": "COSMOS 2251 DEB",
        "meta_object_id": "1993-036MZ",
        "meta_epoch": "2025-12-03T00:41:11.065056",
        "meta_mean_motion": 14.54249928,
        "meta_eccentricity": 0.0134902,
        "meta_inclination": 74.0048,
        "meta_ra_of_asc_node": 306.4463,
        "meta_arg_of_pericenter": 87.2922,
        "meta_mean_anomaly": 341.4814,
        "meta_ephemeris_type": 0,
        "meta_classification_type": "U",
        "meta_norad_cat_id": 34303,
        "meta_element_set_no": 999,
        "meta_rev_at_epoch": 87821,
        "meta_bstar": 0.0015334,
        "meta_mean_motion_dot": 7.315e-05,
        "meta_mean_motion_ddot": 0,
        "tle_line1": "1 34303U 93036MZ  25337.02860029  .00007315  00000+0  15334-2 0  9994",
        "tle_line2": "2 34303  74.0048 306.4463 0134902  87.2922 341.4814 14.54249928878212"
      },
      "geometry": {
        "type": "Point",
        "coordinates": [
          109.31390559824504,
          44.423680925382364
        ]
      }
    },
    {
      "type": "Feature",
      "properties": {
        "norad_id": 34304,
        "name": "COSMOS 2251 DEB",
        "group": "cosmos-2251-debris",
        "lat": 69.69517022816538,
        "lon": -169.48495634044542,
        "alt_km": 844.0939408330214,
        "timestamp": "2025-12-03T10:52:57.850109+00:00",
        "meta_object_name": "COSMOS 2251 DEB",
        "meta_object_id": "1993-036NA",
        "meta_epoch": "2025-12-03T04:40:48.813888",
        "meta_mean_motion": 14.37716336,
        "meta_eccentricity": 0.0128853,
        "meta_inclination": 74.0119,
        "meta_ra_of_asc_node": 140.1985,
        "meta_arg_of_pericenter": 279.9418,
        "meta_mean_anomaly": 259.7694,
        "meta_ephemeris_type": 0,
        "meta_classification_type": "U",
        "meta_norad_cat_id": 34304,
        "meta_element_set_no": 999,
        "meta_rev_at_epoch": 87159,
        "meta_bstar": 0.0017239,
        "meta_mean_motion_dot": 5.682e-05,
        "meta_mean_motion_ddot": 0,
        "tle_line1": "1 34304U 93036NA  25337.19500942  .00005682  00000+0  17239-2 0  9999",
        "tle_line2": "2 34304  74.0119 140.1985 0128853 279.9418 259.7694 14.37716336871596"
      },
      "geometry": {
        "type": "Point",
        "coordinates": [
          -169.48495634044542,
          69.69517022816538
        ]
      }
    },
    {
      "type": "Feature",
      "properties": {
        "norad_id": 34307,
        "name": "COSMOS 2251 DEB",
        "group": "cosmos-2251-debris",
        "lat": -12.101376130507392,
        "lon": 151.53183919008262,
        "alt_km": 808.6079371390588,
        "timestamp": "2025-12-03T10:52:57.850120+00:00",
        "meta_object_name": "COSMOS 2251 DEB",
        "meta_object_id": "1993-036ND",
        "meta_epoch": "2025-12-03T01:23:36.955104",
        "meta_mean_motion": 13.54300564,
        "meta_eccentricity": 0.0392385,
        "meta_inclination": 74.0531,
        "meta_ra_of_asc_node": 328.6515,
        "meta_arg_of_pericenter": 161.7105,
        "meta_mean_anomaly": 261.5286,
        "meta_ephemeris_type": 0,
        "meta_classification_type": "U",
        "meta_norad_cat_id": 34307,
        "meta_element_set_no": 999,
        "meta_rev_at_epoch": 82731,
        "meta_bstar": 0.00070811,
        "meta_mean_motion_dot": 7.68e-06,
        "meta_mean_motion_ddot": 0,
        "tle_line1": "1 34307U 93036ND  25337.05806661  .00000768  00000+0  70811-3 0  9990",
        "tle_line2": "2 34307  74.0531 328.6515 0392385 161.7105 261.5286 13.54300564827312"
      },
      "geometry": {
        "type": "Point",
        "coordinates": [
          151.53183919008262,
          -12.101376130507392
        ]
      }
    },
    {
      "type": "Feature",
      "properties": {
        "norad_id": 34313,
        "name": "COSMOS 2251 DEB",
        "group": "cosmos-2251-debris",
        "lat": -73.84160598856589,
        "lon": -117.85237372867827,
        "alt_km": 529.6693402497704,
        "timestamp": "2025-12-03T10:52:57.850131+00:00",
        "meta_object_name": "COSMOS 2251 DEB",
        "meta_object_id": "1993-036NK",
        "meta_epoch": "2025-12-02T09:56:29.604192",
        "meta_mean_motion": 15.1660743,
        "meta_eccentricity": 0.00103144,
        "meta_inclination": 73.9721,
        "meta_ra_of_asc_node": 327.1498,
        "meta_arg_of_pericenter": 95.2372,
        "meta_mean_anomaly": 265.0001,
        "meta_ephemeris_type": 0,
        "meta_classification_type": "U",
        "meta_norad_cat_id": 34313,
        "meta_element_set_no": 999,
        "meta_rev_at_epoch": 88908,
        "meta_bstar": 0.003969879,
        "meta_mean_motion_dot": 0.00078511,
        "meta_mean_motion_ddot": 0,
        "tle_line1": "1 34313U 93036NK  25336.41423153  .00078511  00000+0  39699-2 0  9996",
        "tle_line2": "2 34313  73.9721 327.1498 0010314  95.2372 265.0001 15.16607430889086"
      },
      "geometry": {
        "type": "Point",
        "coordinates": [
          -117.85237372867827,
          -73.84160598856589
        ]
      }
    }
  ]
}